[
    {
        "Altitude(m)": 705082.2098912841,
        "Argument of Periapsis(deg)": 0.0034170363559881197,
        "Eccentricity": 0.0,
        "Inclination(deg)": 45.0,
        "Latitude(deg)": -9.19366896811082,
        "Longitude(deg)": -64.47442162901032,
        "Mean Anomaly(deg)": -12.903635005755813,
        "RAAN(deg)": 44.996774417562534,
        "Satellite Name": "Constellation 1 219",
        "Satellite Number": 219,
        "Semi-Major Axis(m)": 7083131.272910544,
        "Time(s)": 57
    },
    {
        "Altitude(m)": 705072.4939857017,
        "Argument of Periapsis(deg)": 0.003476984362233526,
        "Eccentricity": 0.0,
        "Inclination(deg)": 45.0,
        "Latitude(deg)": -9.15104197851915,
        "Longitude(deg)": -64.43458077489981,
        "Mean Anomaly(deg)": -12.842933865505909,
        "RAAN(deg)": 44.99671782839697,
        "Satellite Name": "Constellation 1 219",
        "Satellite Number": 219,
        "Semi-Major Axis(m)": 7083131.272910544,
        "Time(s)": 58
    },
    {
        "Altitude(m)": 705062.7953058847,
        "Argument of Periapsis(deg)": 0.003536932368478932,
        "Eccentricity": 0.0,
        "Inclination(deg)": 45.0,
        "Latitude(deg)": -9.108409475949564,
        "Longitude(deg)": -64.39475045660595,
        "Mean Anomaly(deg)": -12.782232725255946,
        "RAAN(deg)": 44.9966612392314,
        "Satellite Name": "Constellation 1 219",
        "Satellite Number": 219,
        "Semi-Major Axis(m)": 7083131.272910544,
        "Time(s)": 59
    },
    {
        "Altitude(m)": 705053.1138772315,
        "Argument of Periapsis(deg)": 0.003596880374724337,
        "Eccentricity": 0.0,
        "Inclination(deg)": 45.0,
        "Latitude(deg)": -9.06577148734422,
        "Longitude(deg)": -64.35493028735729,
        "Mean Anomaly(deg)": -12.72153158500609,
        "RAAN(deg)": 44.996604650065834,
        "Satellite Name": "Constellation 1 219",
        "Satellite Number": 219,
        "Semi-Major Axis(m)": 7083131.272910544,
        "Time(s)": 60
    },
    {
        "Altitude(m)": 705043.4497250564,
        "Argument of Periapsis(deg)": 0.0036568283809697427,
        "Eccentricity": 0.0,
        "Inclination(deg)": 45.0,
        "Latitude(deg)": -9.02312803962588,
        "Longitude(deg)": -64.31512038469464,
        "Mean Anomaly(deg)": -12.66083044475618,
        "RAAN(deg)": 44.99654806090026,
        "Satellite Name": "Constellation 1 219",
        "Satellite Number": 219,
        "Semi-Major Axis(m)": 7083131.272910544,
        "Time(s)": 61
    },
    {
        "Altitude(m)": 705033.8028745911,
        "Argument of Periapsis(deg)": 0.003716776387215149,
        "Eccentricity": 0.0,
        "Inclination(deg)": 45.0,
        "Latitude(deg)": -8.980479159698058,
        "Longitude(deg)": -64.27532069808267,
        "Mean Anomaly(deg)": -12.600129304506318,
        "RAAN(deg)": 44.99649147173469,
        "Satellite Name": "Constellation 1 219",
        "Satellite Number": 219,
        "Semi-Major Axis(m)": 7083131.272910544,
        "Time(s)": 62
    },
    {
        "Altitude(m)": 705024.1733509907,
        "Argument of Periapsis(deg)": 0.003776724393460554,
        "Eccentricity": 0.0,
        "Inclination(deg)": 45.0,
        "Latitude(deg)": -8.937824874444791,
        "Longitude(deg)": -64.2355311770068,
        "Mean Anomaly(deg)": -12.539428164256355,
        "RAAN(deg)": 44.99643488256912,
        "Satellite Name": "Constellation 1 219",
        "Satellite Number": 219,
        "Semi-Major Axis(m)": 7083131.272910544,
        "Time(s)": 63
    },
    {
        "Altitude(m)": 705014.5611793202,
        "Argument of Periapsis(deg)": 0.003836672399705959,
        "Eccentricity": 0.0,
        "Inclination(deg)": 45.0,
        "Latitude(deg)": -8.89516521073125,
        "Longitude(deg)": -64.19575177097347,
        "Mean Anomaly(deg)": -12.478727024006501,
        "RAAN(deg)": 44.99637829340355,
        "Satellite Name": "Constellation 1 219",
        "Satellite Number": 219,
        "Semi-Major Axis(m)": 7083131.272910544,
        "Time(s)": 64
    },
    {
        "Altitude(m)": 705004.9663845564,
        "Argument of Periapsis(deg)": 0.003896620405951365,
        "Eccentricity": 0.0,
        "Inclination(deg)": 45.0,
        "Latitude(deg)": -8.85250019540325,
        "Longitude(deg)": -64.15598242950958,
        "Mean Anomaly(deg)": -12.418025883756588,
        "RAAN(deg)": 44.99632170423798,
        "Satellite Name": "Constellation 1 219",
        "Satellite Number": 219,
        "Semi-Major Axis(m)": 7083131.272910544,
        "Time(s)": 65
    },
    {
        "Altitude(m)": 704995.3889916135,
        "Argument of Periapsis(deg)": 0.003956568412196771,
        "Eccentricity": 0.0,
        "Inclination(deg)": 45.0,
        "Latitude(deg)": -8.809829855287806,
        "Longitude(deg)": -64.11622310216269,
        "Mean Anomaly(deg)": -12.357324743506677,
        "RAAN(deg)": 44.99626511507241,
        "Satellite Name": "Constellation 1 219",
        "Satellite Number": 219,
        "Semi-Major Axis(m)": 7083131.272910544,
        "Time(s)": 66
    },
    {
        "Altitude(m)": 704985.8290253035,
        "Argument of Periapsis(deg)": 0.004016516418442176,
        "Eccentricity": 0.0,
        "Inclination(deg)": 45.0,
        "Latitude(deg)": -8.76715421719317,
        "Longitude(deg)": -64.07647390659814,
        "Mean Anomaly(deg)": -12.296623603256815,
        "RAAN(deg)": 44.99620852590684,
        "Satellite Name": "Constellation 1 219",
        "Satellite Number": 219,
        "Semi-Major Axis(m)": 7083131.272910544,
        "Time(s)": 67
    },
    {
        "Altitude(m)": 704976.2865103618,
        "Argument of Periapsis(deg)": 0.004076464424687581,
        "Eccentricity": 0.0,
        "Inclination(deg)": 45.0,
        "Latitude(deg)": -8.724473307908406,
        "Longitude(deg)": -64.03673445621013,
        "Mean Anomaly(deg)": -12.235922463006911,
        "RAAN(deg)": 44.99615193674127,
        "Satellite Name": "Constellation 1 219",
        "Satellite Number": 219,
        "Semi-Major Axis(m)": 7083131.272910544,
        "Time(s)": 68
    },
    {
        "Altitude(m)": 704966.7614714493,
        "Argument of Periapsis(deg)": 0.004136412430932987,
        "Eccentricity": 0.0,
        "Inclination(deg)": 45.0,
        "Latitude(deg)": -8.681787154204319,
        "Longitude(deg)": -63.99700486870469,
        "Mean Anomaly(deg)": -12.175221322756999,
        "RAAN(deg)": 44.996095347575704,
        "Satellite Name": "Constellation 1 219",
        "Satellite Number": 219,
        "Semi-Major Axis(m)": 7083131.272910544,
        "Time(s)": 69
    },
    {
        "Altitude(m)": 704957.2539331259,
        "Argument of Periapsis(deg)": 0.004196360437178394,
        "Eccentricity": 0.0,
        "Inclination(deg)": 45.0,
        "Latitude(deg)": -8.639095782833015,
        "Longitude(deg)": -63.957285093710944,
        "Mean Anomaly(deg)": -12.114520182507093,
        "RAAN(deg)": 44.99603875841014,
        "Satellite Name": "Constellation 1 219",
        "Satellite Number": 219,
        "Semi-Major Axis(m)": 7083131.272910544,
        "Time(s)": 70
    },
    {
        "Altitude(m)": 704947.7639198874,
        "Argument of Periapsis(deg)": 0.004256308443423799,
        "Eccentricity": 0.0,
        "Inclination(deg)": 45.0,
        "Latitude(deg)": -8.596399220528117,
        "Longitude(deg)": -63.917575080878144,
        "Mean Anomaly(deg)": -12.053819042257174,
        "RAAN(deg)": 44.99598216924456,
        "Satellite Name": "Constellation 1 219",
        "Satellite Number": 219,
        "Semi-Major Axis(m)": 7083131.272910544,
        "Time(s)": 71
    },
    {
        "Altitude(m)": 704938.2914561345,
        "Argument of Periapsis(deg)": 0.004316256449669204,
        "Eccentricity": 0.0,
        "Inclination(deg)": 45.0,
        "Latitude(deg)": -8.553697494004895,
        "Longitude(deg)": -63.87787477987575,
        "Mean Anomaly(deg)": -11.993117902007318,
        "RAAN(deg)": 44.995925580078996,
        "Satellite Name": "Constellation 1 219",
        "Satellite Number": 219,
        "Semi-Major Axis(m)": 7083131.272910544,
        "Time(s)": 72
    },
    {
        "Altitude(m)": 704928.8365661842,
        "Argument of Periapsis(deg)": 0.00437620445591461,
        "Eccentricity": 0.0,
        "Inclination(deg)": 45.0,
        "Latitude(deg)": -8.510990629960272,
        "Longitude(deg)": -63.83818414039303,
        "Mean Anomaly(deg)": -11.932416761757409,
        "RAAN(deg)": 44.99586899091342,
        "Satellite Name": "Constellation 1 219",
        "Satellite Number": 219,
        "Semi-Major Axis(m)": 7083131.272910544,
        "Time(s)": 73
    },
    {
        "Altitude(m)": 704919.3992742794,
        "Argument of Periapsis(deg)": 0.004436152462160016,
        "Eccentricity": 0.0,
        "Inclination(deg)": 45.0,
        "Latitude(deg)": -8.468278655073208,
        "Longitude(deg)": -63.79850328023641,
        "Mean Anomaly(deg)": -11.871715621507553,
        "RAAN(deg)": 44.995812401747855,
        "Satellite Name": "Constellation 1 219",
        "Satellite Number": 219,
        "Semi-Major Axis(m)": 7083131.272910544,
        "Time(s)": 74
    },
    {
        "Altitude(m)": 704909.979604568,
        "Argument of Periapsis(deg)": 0.0044961004684054215,
        "Eccentricity": 0.0,
        "Inclination(deg)": 45.0,
        "Latitude(deg)": -8.425561596004083,
        "Longitude(deg)": -63.758831812940656,
        "Mean Anomaly(deg)": -11.811014481257583,
        "RAAN(deg)": 44.99575581258228,
        "Satellite Name": "Constellation 1 219",
        "Satellite Number": 219,
        "Semi-Major Axis(m)": 7083131.272910544,
        "Time(s)": 75
    }
]